{
  "norad_id": 57640,
  "name": "STARLINK-30324",
  "history": [
    {
      "epoch": "2026-03-28T18:42:19.734912Z",
      "apogee_km": 484.19079759657234,
      "perigee_km": 481.8511427287467,
      "latitude_deg": -4.877645094999957e-05,
      "longitude_deg": -121.84132353719917,
      "height_km": 482.93908040455557,
      "semi_major_axis_km": 6861.157970162659,
      "eccentricity": 0.0001705,
      "inclination_deg": 43.0026,
      "raan_deg": 344.9359,
      "arg_perigee_deg": 263.0823,
      "mean_anomaly_deg": 96.9834,
      "mean_motion_rev_day": 15.27589393
    },
    {
      "epoch": "2026-03-28T23:24:47.670336Z",
      "apogee_km": 484.19116533228953,
      "perigee_km": 481.8268144241774,
      "latitude_deg": 3.6904376197713556e-05,
      "longitude_deg": 166.24102932464325,
      "height_km": 482.9986888793449,
      "semi_major_axis_km": 6861.145989878233,
      "eccentricity": 0.0001723,
      "inclination_deg": 43.003,
      "raan_deg": 343.8279,
      "arg_perigee_deg": 259.6466,
      "mean_anomaly_deg": 100.4192,
      "mean_motion_rev_day": 15.27593394
    },
    {
      "epoch": "2026-03-29T22:57:08.424864Z",
      "apogee_km": 483.8159138016472,
      "perigee_km": 482.2543110288607,
      "latitude_deg": -1.161298719196973e-05,
      "longitude_deg": 166.64838444101,
      "height_km": 483.0623577249482,
      "semi_major_axis_km": 6861.172112415254,
      "eccentricity": 0.0001138,
      "inclination_deg": 43.0015,
      "raan_deg": 338.2885,
      "arg_perigee_deg": 251.2729,
      "mean_anomaly_deg": 108.7999,
      "mean_motion_rev_day": 15.2758467
    },
    {
      "epoch": "2026-03-29T22:57:08.425728Z",
      "apogee_km": 483.8159138016472,
      "perigee_km": 482.2543110288607,
      "latitude_deg": -1.1616022948037414e-05,
      "longitude_deg": 166.64838082791897,
      "height_km": 483.0623577252827,
      "semi_major_axis_km": 6861.172112415254,
      "eccentricity": 0.0001138,
      "inclination_deg": 43.0015,
      "raan_deg": 338.2885,
      "arg_perigee_deg": 251.2729,
      "mean_anomaly_deg": 108.7999,
      "mean_motion_rev_day": 15.2758467
    },
    {
      "epoch": "2026-03-30T22:29:29.840352Z",
      "apogee_km": 484.21899552647756,
      "perigee_km": 481.91500322348656,
      "latitude_deg": -3.432072171669901e-05,
      "longitude_deg": 167.05550617052376,
      "height_km": 482.9736113849251,
      "semi_major_axis_km": 6861.203999374981,
      "eccentricity": 0.0001679,
      "inclination_deg": 43.0042,
      "raan_deg": 332.7516,
      "arg_perigee_deg": 263.5586,
      "mean_anomaly_deg": 96.5074,
      "mean_motion_rev_day": 15.27574021
    },
    {
      "epoch": "2026-03-30T22:29:29.841216Z",
      "apogee_km": 484.21878969035697,
      "perigee_km": 481.91520905960715,
      "latitude_deg": -3.666424843853416e-05,
      "longitude_deg": 167.05550006179712,
      "height_km": 482.97358829606054,
      "semi_major_axis_km": 6861.203999374981,
      "eccentricity": 0.00016787,
      "inclination_deg": 43.0042,
      "raan_deg": 332.7516,
      "arg_perigee_deg": 263.5586,
      "mean_anomaly_deg": 96.5074,
      "mean_motion_rev_day": 15.27574021
    },
    {
      "epoch": "2026-04-01T01:10:09.586848Z",
      "apogee_km": 484.1480915663351,
      "perigee_km": 481.85427584875833,
      "latitude_deg": 2.945352429609806e-05,
      "longitude_deg": 119.51405079844164,
      "height_km": 483.18398203418275,
      "semi_major_axis_km": 6861.138183707547,
      "eccentricity": 0.00016716,
      "inclination_deg": 43.0042,
      "raan_deg": 326.4713,
      "arg_perigee_deg": 249.2918,
      "mean_anomaly_deg": 110.7755,
      "mean_motion_rev_day": 15.27596001
    },
    {
      "epoch": "2026-04-02T14:49:54.570144Z",
      "apogee_km": 484.1806337138687,
      "perigee_km": 481.8961367576003,
      "latitude_deg": 1.798429663899942e-05,
      "longitude_deg": -95.83103394883251,
      "height_km": 483.2108700712329,
      "semi_major_axis_km": 6861.175385235734,
      "eccentricity": 0.00016648,
      "inclination_deg": 43.0026,
      "raan_deg": 317.6104,
      "arg_perigee_deg": 249.7464,
      "mean_anomaly_deg": 110.3209,
      "mean_motion_rev_day": 15.27583577
    },
    {
      "epoch": "2026-04-03T15:56:24.797760Z",
      "apogee_km": 484.1344143589067,
      "perigee_km": 481.9841154494861,
      "latitude_deg": 9.80228197775957e-06,
      "longitude_deg": -119.39525606252408,
      "height_km": 483.128032258731,
      "semi_major_axis_km": 6861.196264904196,
      "eccentricity": 0.0001567,
      "inclination_deg": 43.002,
      "raan_deg": 311.7033,
      "arg_perigee_deg": 254.2524,
      "mean_anomaly_deg": 105.8155,
      "mean_motion_rev_day": 15.27576604
    },
    {
      "epoch": "2026-04-04T07:37:58.672416Z",
      "apogee_km": 484.2565261874006,
      "perigee_km": 481.86526149743804,
      "latitude_deg": 1.387318753414068e-05,
      "longitude_deg": 0.8758254972373356,
      "height_km": 483.14689739689436,
      "semi_major_axis_km": 6861.197893842419,
      "eccentricity": 0.00017426,
      "inclination_deg": 43.0039,
      "raan_deg": 308.01,
      "arg_perigee_deg": 255.0382,
      "mean_anomaly_deg": 105.0277,
      "mean_motion_rev_day": 15.2757606
    },
    {
      "epoch": "2026-04-05T15:01:07.103424Z",
      "apogee_km": 483.959128585052,
      "perigee_km": 482.2054009409776,
      "latitude_deg": -1.6175821659233162e-05,
      "longitude_deg": -118.58650139815698,
      "height_km": 483.56143805981566,
      "semi_major_axis_km": 6861.2192647630145,
      "eccentricity": 0.0001278,
      "inclination_deg": 42.9993,
      "raan_deg": 300.6218,
      "arg_perigee_deg": 216.6833,
      "mean_anomaly_deg": 143.3931,
      "mean_motion_rev_day": 15.27568923
    },
    {
      "epoch": "2026-04-06T06:42:41.516352Z",
      "apogee_km": 483.71592773349585,
      "perigee_km": 482.4654003794449,
      "latitude_deg": -3.2172733594149785e-05,
      "longitude_deg": 1.6847087862495418,
      "height_km": 483.17149832765125,
      "semi_major_axis_km": 6861.2276640564705,
      "eccentricity": 9.113e-05,
      "inclination_deg": 43.0011,
      "raan_deg": 296.9309,
      "arg_perigee_deg": 240.8491,
      "mean_anomaly_deg": 119.2269,
      "mean_motion_rev_day": 15.27566118
    },
    {
      "epoch": "2026-04-07T14:05:48.474240Z",
      "apogee_km": 483.9647929433959,
      "perigee_km": 482.14108865713115,
      "latitude_deg": 4.0854899959947655e-05,
      "longitude_deg": -117.76665512787915,
      "height_km": 482.85023368827234,
      "semi_major_axis_km": 6861.189940800263,
      "eccentricity": 0.0001329,
      "inclination_deg": 43.0038,
      "raan_deg": 289.5474,
      "arg_perigee_deg": 268.7285,
      "mean_anomaly_deg": 91.3415,
      "mean_motion_rev_day": 15.27578716
    },
    {
      "epoch": "2026-04-08T13:38:09.653856Z",
      "apogee_km": 483.78707173537987,
      "perigee_km": 482.32577476009646,
      "latitude_deg": -3.1544812309768496e-05,
      "longitude_deg": -117.36070496555,
      "height_km": 482.98897134439227,
      "semi_major_axis_km": 6861.193423247738,
      "eccentricity": 0.00010649,
      "inclination_deg": 43.0036,
      "raan_deg": 284.0084,
      "arg_perigee_deg": 257.6904,
      "mean_anomaly_deg": 102.3828,
      "mean_motion_rev_day": 15.27577553
    },
    {
      "epoch": "2026-04-09T21:01:17.290848Z",
      "apogee_km": 483.7404363299793,
      "perigee_km": 482.43268711911514,
      "latitude_deg": -2.578323632426917e-05,
      "longitude_deg": 123.18162167164922,
      "height_km": 483.19254291121956,
      "semi_major_axis_km": 6861.223561724547,
      "eccentricity": 9.53e-05,
      "inclination_deg": 43.0027,
      "raan_deg": 276.6215,
      "arg_perigee_deg": 239.7382,
      "mean_anomaly_deg": 120.3375,
      "mean_motion_rev_day": 15.27567488
    },
    {
      "epoch": "2026-04-10T11:08:41.853120Z",
      "apogee_km": 483.89165779326686,
      "perigee_km": 482.286130933986,
      "latitude_deg": 2.859365000467111e-05,
      "longitude_deg": -92.57229571761536,
      "height_km": 482.8545373650596,
      "semi_major_axis_km": 6861.225894363626,
      "eccentricity": 0.000117,
      "inclination_deg": 43.0034,
      "raan_deg": 273.2999,
      "arg_perigee_deg": 270.8025,
      "mean_anomaly_deg": 89.2693,
      "mean_motion_rev_day": 15.27566709
    },
    {
      "epoch": "2026-04-11T18:31:47.984160Z",
      "apogee_km": 485.0929316195279,
      "perigee_km": 480.9913187384964,
      "latitude_deg": -3.105575860150531e-05,
      "longitude_deg": 147.9787545592563,
      "height_km": 482.74281824873395,
      "semi_major_axis_km": 6861.179125179012,
      "eccentricity": 0.0002989,
      "inclination_deg": 43.0085,
      "raan_deg": 265.9155,
      "arg_perigee_deg": 272.1828,
      "mean_anomaly_deg": 87.8681,
      "mean_motion_rev_day": 15.27582328
    },
    {
      "epoch": "2026-04-13T03:29:06.112896Z",
      "apogee_km": 483.9734678081122,
      "perigee_km": 482.4848258089014,
      "latitude_deg": -3.3507706344314455e-07,
      "longitude_deg": 4.546534904965698,
      "height_km": 482.88234963484814,
      "semi_major_axis_km": 6861.3661468085065,
      "eccentricity": 0.00010848,
      "inclination_deg": 43.0026,
      "raan_deg": 258.1622,
      "arg_perigee_deg": 279.5533,
      "mean_anomaly_deg": 80.5196,
      "mean_motion_rev_day": 15.27519872
    },
    {
      "epoch": "2026-04-14T17:08:51.493632Z",
      "apogee_km": 483.7845745751001,
      "perigee_km": 482.32039673886084,
      "latitude_deg": -1.2815645046995378e-05,
      "longitude_deg": 149.19558852147077,
      "height_km": 482.7451123935062,
      "semi_major_axis_km": 6861.189485656981,
      "eccentricity": 0.0001067,
      "inclination_deg": 43.0041,
      "raan_deg": 249.2971,
      "arg_perigee_deg": 276.6088,
      "mean_anomaly_deg": 83.4642,
      "mean_motion_rev_day": 15.27578868
    }
  ]
}